{
  "type": "FeatureCollection",
  "features": [
    {
      "type": "Feature",
      "properties": {"id": "jm"},
      "geometry": {
        "type": "Polygon",
        "coordinates": [[
          [-78.42, 18.05], [-78.20, 17.80], [-77.75, 17.75], [-77.20, 17.78],
          [-76.65, 17.90], [-76.20, 18.10], [-76.25, 18.35], [-76.70, 18.47],
          [-77.28, 18.52], [-77.95, 18.45], [-78.35, 18.28], [-78.42, 18.05]
        ]]
      }
    },
    {
      "type": "Feature",
      "properties": {"id": "ht"},
      "geometry": {
        "type": "Polygon",
        "coordinates": [[
          [-74.50, 18.00], [-74.25, 18.35], [-73.90, 18.62], [-73.35, 18.75],
          [-72.65, 18.75], [-72.05, 18.62], [-71.75, 18.43], [-72.02, 18.12],
          [-72.55, 17.98], [-73.20, 17.93], [-73.88, 17.95], [-74.35, 17.98],
          [-74.50, 18.00]
        ]]
      }
    },
    {
      "type": "Feature",
      "properties": {"id": "do"},
      "geometry": {
        "type": "Polygon",
        "coordinates": [[
          [-72.02, 17.60], [-71.65, 17.95], [-70.95, 18.10], [-70.15, 18.22],
          [-69.30, 18.48], [-68.55, 18.72], [-68.25, 19.02], [-68.48, 19.30],
          [-69.20, 19.55], [-70.05, 19.68], [-70.95, 19.62], [-71.45, 19.38],
          [-71.85, 18.95], [-72.02, 18.35], [-72.02, 17.60]
        ]]
      }
    },
    {
      "type": "Feature",
      "properties": {"id": "pr"},
      "geometry": {
        "type": "Polygon",
        "coordinates": [[
          [-67.30, 17.92], [-67.10, 18.13], [-66.70, 18.23], [-66.22, 18.30],
          [-65.72, 18.36], [-65.28, 18.44], [-65.24, 18.20], [-65.55, 18.08],
          [-66.00, 17.98], [-66.55, 17.88], [-67.05, 17.84], [-67.30, 17.92]
        ]]
      }
    },
    {
      "type": "Feature",
      "properties": {"id": "bs"},
      "geometry": {
        "type": "MultiPolygon",
        "coordinates": [
          [[
            [-79.90, 26.85], [-79.45, 26.45], [-78.90, 26.35], [-78.25, 26.55],
            [-77.95, 26.98], [-78.35, 27.35], [-79.00, 27.45], [-79.65, 27.20],
            [-79.90, 26.85]
          ]],
          [[
            [-77.85, 25.55], [-77.55, 25.30], [-77.10, 25.25], [-76.70, 25.45],
            [-76.68, 25.78], [-77.08, 26.00], [-77.55, 25.95], [-77.85, 25.55]
          ]],
          [[
            [-75.45, 24.45], [-75.10, 24.30], [-74.75, 24.42], [-74.72, 24.70],
            [-75.02, 24.88], [-75.38, 24.82], [-75.45, 24.45]
          ]]
        ]
      }
    },
    {
      "type": "Feature",
      "properties": {"id": "tt"},
      "geometry": {
        "type": "MultiPolygon",
        "coordinates": [
          [[
            [-61.95, 10.08], [-61.82, 10.32], [-61.62, 10.50], [-61.33, 10.69],
            [-60.98, 10.86], [-60.67, 10.85], [-60.55, 10.55], [-60.60, 10.28],
            [-60.82, 10.12], [-61.16, 10.03], [-61.55, 10.00], [-61.82, 10.02],
            [-61.95, 10.08]
          ]],
          [[
            [-61.82, 11.06], [-61.70, 11.16], [-61.52, 11.20], [-61.35, 11.14],
            [-61.30, 11.00], [-61.40, 10.90], [-61.60, 10.88], [-61.78, 10.95],
            [-61.82, 11.06]
          ]]
        ]
      }
    },
    {
      "type": "Feature",
      "properties": {"id": "gy"},
      "geometry": {
        "type": "Polygon",
        "coordinates": [[
          [-61.40, 8.55], [-60.95, 8.40], [-60.25, 8.35], [-59.30, 8.22],
          [-58.30, 7.70], [-57.35, 6.90], [-56.95, 6.15], [-56.95, 5.35],
          [-57.15, 4.55], [-57.45, 3.92], [-58.05, 2.85], [-58.95, 2.10],
          [-59.95, 2.05], [-60.70, 2.30], [-61.10, 2.90], [-61.28, 3.85],
          [-61.45, 4.75], [-61.55, 5.55], [-61.55, 6.55], [-61.40, 8.55]
        ]]
      }
    },
    {
      "type": "Feature",
      "properties": {"id": "ag"},
      "geometry": {
        "type": "MultiPolygon",
        "coordinates": [
          [[
            [-61.93, 16.98], [-61.89, 17.07], [-61.82, 17.10], [-61.75, 17.07],
            [-61.73, 16.99], [-61.78, 16.93], [-61.86, 16.92], [-61.93, 16.98]
          ]],
          [[
            [-61.86, 17.80], [-61.78, 17.85], [-61.66, 17.85], [-61.60, 17.79],
            [-61.65, 17.70], [-61.79, 17.70], [-61.86, 17.80]
          ]]
        ]
      }
    },
    {
      "type": "Feature",
      "properties": {"id": "dm"},
      "geometry": {
        "type": "Polygon",
        "coordinates": [[
          [-61.50, 15.20], [-61.45, 15.31], [-61.41, 15.45], [-61.38, 15.58],
          [-61.32, 15.63], [-61.25, 15.58], [-61.24, 15.46], [-61.28, 15.33],
          [-61.35, 15.23], [-61.43, 15.19], [-61.50, 15.20]
        ]]
      }
    },
    {
      "type": "Feature",
      "properties": {"id": "lc"},
      "geometry": {
        "type": "Polygon",
        "coordinates": [[
          [-61.10, 13.69], [-61.05, 13.80], [-61.01, 13.93], [-60.98, 14.03],
          [-60.94, 14.07], [-60.88, 14.02], [-60.88, 13.90], [-60.92, 13.77],
          [-60.97, 13.68], [-61.03, 13.66], [-61.10, 13.69]
        ]]
      }
    },
    {
      "type": "Feature",
      "properties": {"id": "vc"},
      "geometry": {
        "type": "MultiPolygon",
        "coordinates": [
          [[
            [-61.31, 13.10], [-61.27, 13.18], [-61.24, 13.27], [-61.22, 13.35],
            [-61.19, 13.38], [-61.14, 13.34], [-61.14, 13.24], [-61.18, 13.14],
            [-61.23, 13.08], [-61.27, 13.07], [-61.31, 13.10]
          ]],
          [[
            [-61.36, 12.95], [-61.33, 12.99], [-61.29, 13.00], [-61.27, 12.97],
            [-61.29, 12.93], [-61.33, 12.92], [-61.36, 12.95]
          ]],
          [[
            [-61.44, 12.87], [-61.41, 12.91], [-61.37, 12.91], [-61.35, 12.88],
            [-61.37, 12.84], [-61.41, 12.84], [-61.44, 12.87]
          ]]
        ]
      }
    },
    {
      "type": "Feature",
      "properties": {"id": "gd"},
      "geometry": {
        "type": "Polygon",
        "coordinates": [[
          [-61.83, 12.02], [-61.79, 12.08], [-61.75, 12.16], [-61.72, 12.22],
          [-61.68, 12.23], [-61.65, 12.17], [-61.65, 12.09], [-61.68, 12.03],
          [-61.73, 11.99], [-61.78, 11.98], [-61.83, 12.02]
        ]]
      }
    },
    {
      "type": "Feature",
      "properties": {"id": "bb"},
      "geometry": {
        "type": "Polygon",
        "coordinates": [[
          [-59.66, 13.05], [-59.62, 13.14], [-59.59, 13.24], [-59.56, 13.31],
          [-59.52, 13.32], [-59.49, 13.25], [-59.50, 13.16], [-59.53, 13.09],
          [-59.58, 13.03], [-59.63, 13.02], [-59.66, 13.05]
        ]]
      }
    },
    {
      "type": "Feature",
      "properties": {"id": "aw"},
      "geometry": {
        "type": "Polygon",
        "coordinates": [[
          [-70.08, 12.41], [-69.98, 12.45], [-69.86, 12.49], [-69.75, 12.50],
          [-69.64, 12.48], [-69.61, 12.44], [-69.70, 12.40], [-69.84, 12.38],
          [-69.98, 12.38], [-70.08, 12.41]
        ]]
      }
    },
    {
      "type": "Feature",
      "properties": {"id": "cw"},
      "geometry": {
        "type": "Polygon",
        "coordinates": [[
          [-69.28, 12.08], [-69.15, 12.11], [-69.00, 12.13], [-68.85, 12.14],
          [-68.70, 12.12], [-68.62, 12.10], [-68.70, 12.06], [-68.86, 12.04],
          [-69.02, 12.03], [-69.18, 12.04], [-69.28, 12.08]
        ]]
      }
    },
    {
      "type": "Feature",
      "properties": {"id": "vi"},
      "geometry": {
        "type": "MultiPolygon",
        "coordinates": [
          [[
            [-65.16, 18.33], [-65.10, 18.36], [-65.03, 18.36], [-64.97, 18.33],
            [-64.99, 18.28], [-65.07, 18.27], [-65.14, 18.29], [-65.16, 18.33]
          ]],
          [[
            [-64.92, 18.40], [-64.87, 18.43], [-64.80, 18.43], [-64.75, 18.39],
            [-64.77, 18.34], [-64.84, 18.33], [-64.90, 18.35], [-64.92, 18.40]
          ]]
        ]
      }
    },
    {
      "type": "Feature",
      "properties": {"id": "vg"},
      "geometry": {
        "type": "MultiPolygon",
        "coordinates": [
          [[
            [-64.72, 18.44], [-64.67, 18.46], [-64.61, 18.46], [-64.56, 18.43],
            [-64.58, 18.39], [-64.64, 18.38], [-64.70, 18.40], [-64.72, 18.44]
          ]],
          [[
            [-64.44, 18.40], [-64.39, 18.43], [-64.33, 18.43], [-64.29, 18.40],
            [-64.31, 18.36], [-64.37, 18.35], [-64.42, 18.36], [-64.44, 18.40]
          ]]
        ]
      }
    }
  ]
}
